HULIANWANG DIGUI-113    
1 66923U 25285J   26063.45955711 -.00000210  00000+0 -18555-3 0  9993
2 66923  50.0097 161.2718 0000040 329.7035  30.3835 13.29331220 12133
HULIANWANG DIGUI-114    
1 66953U 25287A   26063.50778913  .00000093  00000+0  18320-3 0  9998
2 66953  86.4976 317.7601 0001979  80.6772 279.4586 13.24415655 11483
HULIANWANG DIGUI-115    
1 66954U 25287B   26063.50021708  .00000103  00000+0  20567-3 0  9990
2 66954  86.4992 317.7716 0002056  80.2373 279.8994 13.24415733 11483
HULIANWANG DIGUI-116    
1 66955U 25287C   26063.49267039  .00000105  00000+0  21096-3 0  9998
2 66955  86.4931 317.7111 0002062  80.3565 279.7802 13.24415801 11480
HULIANWANG DIGUI-117    
1 66956U 25287D   26063.48515421  .00000099  00000+0  19672-3 0  9998
2 66956  86.4992 317.7648 0001327  22.2358 337.8833 13.24413917 11487
HULIANWANG DIGUI-118    
1 66957U 25287E   26063.47758391  .00000097  00000+0  19244-3 0  9996
2 66957  86.4968 317.7390 0002041  80.0190 280.1175 13.24415236 11480
HULIANWANG DIGUI-119    
1 67059U 25295A   26062.07289615 -.00000061  00000+0  10846-3 0  9993
2 67059  50.0099  47.5635 0000609 106.8761 253.2187 13.51029834 11361
HULIANWANG DIGUI-120    
1 67060U 25295B   26062.79994701 -.00000062  00000+0  10824-3 0  9990
2 67060  50.0053  44.7690 0001089 322.3204  37.7601 13.50760701 11464
HULIANWANG DIGUI-121    
1 67061U 25295C   26063.17683107 -.00000060  00000+0  11183-3 0  9996
2 67061  50.0101  43.3832 0000755 248.9318 111.1482 13.49700373 11517
HULIANWANG DIGUI-122    
1 67062U 25295D   26063.01502780 -.00000063  00000+0  10594-3 0  9995
2 67062  50.0136  43.7171 0014279 184.5559 175.5195 13.50482229 11495
HULIANWANG DIGUI-123    
1 67063U 25295E   26062.19420728 -.00000042  00000+0  13716-3 0  9991
2 67063  50.0058  46.9026 0000742 273.8979  86.1818 13.51163893 11382
HULIANWANG DIGUI-124    
1 67064U 25295F   26062.85402733 -.00000057  00000+0  11422-3 0  9999
2 67064  50.0011  44.3490 0000634 348.9504  11.1363 13.51154708 11475
HULIANWANG DIGUI-125    
1 67065U 25295G   26062.84745098 -.00000058  00000+0  11281-3 0  9997
2 67065  49.9987  44.3079 0001264  15.7402 344.3519 13.51200294 11470
HULIANWANG DIGUI-126    
1 67066U 25295H   26062.32247343 -.00000080  00000+0  79664-4 0  9996
2 67066  49.9966  46.1982 0001436  46.9301 313.1700 13.51245278 11406
HULIANWANG DIGUI-127    
1 67067U 25295J   26063.05165876 -.00000326  00000+0 -30218-3 0  9993
2 67067  50.0077  43.3946 0000901  23.0313 337.0609 13.50551855 11501
HULIANWANG DIGUI-128    
1 67236U 25311A   26062.34722739 -.00000060  00000+0  12954-3 0  9999
2 67236  50.0101 135.2234 0002353 353.5774   6.5071 13.35891953  9263
